{
  "norad_id": 52644,
  "name": "STARLINK-3985",
  "history": [
    {
      "epoch": "2026-03-28T14:43:13.339776Z",
      "apogee_km": 540.5773090542998,
      "perigee_km": 538.9184002661523,
      "latitude_deg": 9.162699480258169e-06,
      "longitude_deg": 127.33444439500559,
      "height_km": 540.7253953224939,
      "semi_major_axis_km": 6917.884854660226,
      "eccentricity": 0.0001199,
      "inclination_deg": 53.2178,
      "raan_deg": 174.1713,
      "arg_perigee_deg": 95.6434,
      "mean_anomaly_deg": 264.4695,
      "mean_motion_rev_day": 15.08838539
    }
  ]
}