{"fetched_at":"2026-03-29T16:36:15Z","count":15609,"tles":[{"name":"STARLINK-3985","line1":"1 52644U 22052AY  26087.61334884  .00001288  00000+0  99029-4 0  9993","line2":"2 52644  53.2178 174.1713 0001199  95.6434 264.4695 15.08838539213983","category":"Starlink"}]}